sat04676
1 04676U 70025AZ  20046.84204028 -.00000012  00000-0  50755-4 0  9997
2 04676 100.0264   1.0512 0004297 319.4611  67.6985 13.54719182461209
